CCSDS_OMM_VERS = 2.0
CREATION_DATE  = 
ORIGINATOR     = 

OBJECT_NAME    = SL-3 R/B
OBJECT_ID      = 1982-079B
CENTER_NAME    = EARTH
REF_FRAME      = TEME
TIME_SYSTEM    = UTC
MEAN_ELEMENT_THEORY = SGP/SGP4

EPOCH          = 2026-01-16T22:37:46.739712
MEAN_MOTION    = 15.24046256
ECCENTRICITY   = .00251826
INCLINATION    = 81.1457
RA_OF_ASC_NODE = 254.1531
ARG_OF_PERICENTER = 344.0446
MEAN_ANOMALY   = 15.9991

EPHEMERIS_TYPE = 0
CLASSIFICATION_TYPE = U
NORAD_CAT_ID   = 13403
ELEMENT_SET_NO = 999
REV_AT_EPOCH   = 36981
BSTAR          = .19601636E-3
MEAN_MOTION_DOT = .4821E-4
MEAN_MOTION_DDOT = 0

CCSDS_OMM_VERS = 2.0
CREATION_DATE  = 
ORIGINATOR     = 

OBJECT_NAME    = SL-14 R/B
OBJECT_ID      = 1982-092B
CENTER_NAME    = EARTH
REF_FRAME      = TEME
TIME_SYSTEM    = UTC
MEAN_ELEMENT_THEORY = SGP/SGP4

EPOCH          = 2026-01-16T23:04:35.936256
MEAN_MOTION    = 14.86595833
ECCENTRICITY   = .00217688
INCLINATION    = 82.5673
RA_OF_ASC_NODE = 189.7693
ARG_OF_PERICENTER = 111.3902
MEAN_ANOMALY   = 4.9771

EPHEMERIS_TYPE = 0
CLASSIFICATION_TYPE = U
NORAD_CAT_ID   = 13553
ELEMENT_SET_NO = 999
REV_AT_EPOCH   = 32124
BSTAR          = .49445993E-4
MEAN_MOTION_DOT = .465E-5
MEAN_MOTION_DDOT = 0

CCSDS_OMM_VERS = 2.0
CREATION_DATE  = 
ORIGINATOR     = 

OBJECT_NAME    = SL-3 R/B
OBJECT_ID      = 1983-010B
CENTER_NAME    = EARTH
REF_FRAME      = TEME
TIME_SYSTEM    = UTC
MEAN_ELEMENT_THEORY = SGP/SGP4

EPOCH          = 2026-01-16T13:46:19.742304
MEAN_MOTION    = 15.44502727
ECCENTRICITY   = .001639
INCLINATION    = 81.1032
RA_OF_ASC_NODE = 66.0640
ARG_OF_PERICENTER = 224.7326
MEAN_ANOMALY   = 135.2597

EPHEMERIS_TYPE = 0
CLASSIFICATION_TYPE = U
NORAD_CAT_ID   = 13819
ELEMENT_SET_NO = 999
REV_AT_EPOCH   = 34989
BSTAR          = .20452323E-3
MEAN_MOTION_DOT = .9558E-4
MEAN_MOTION_DDOT = 0

CCSDS_OMM_VERS = 2.0
CREATION_DATE  = 
ORIGINATOR     = 

OBJECT_NAME    = SL-3 R/B
OBJECT_ID      = 1983-075B
CENTER_NAME    = EARTH
REF_FRAME      = TEME
TIME_SYSTEM    = UTC
MEAN_ELEMENT_THEORY = SGP/SGP4

EPOCH          = 2026-01-16T22:53:28.522176
MEAN_MOTION    = 15.36957947
ECCENTRICITY   = .00241831
INCLINATION    = 97.6110
RA_OF_ASC_NODE = 19.6431
ARG_OF_PERICENTER = 57.6011
MEAN_ANOMALY   = 302.7568

EPHEMERIS_TYPE = 0
CLASSIFICATION_TYPE = U
NORAD_CAT_ID   = 14208
ELEMENT_SET_NO = 999
REV_AT_EPOCH   = 32220
BSTAR          = .28720523E-3
MEAN_MOTION_DOT = .10397E-3
MEAN_MOTION_DDOT = 0

CCSDS_OMM_VERS = 2.0
CREATION_DATE  = 
ORIGINATOR     = 

OBJECT_NAME    = COSMOS 1536
OBJECT_ID      = 1984-013A
CENTER_NAME    = EARTH
REF_FRAME      = TEME
TIME_SYSTEM    = UTC
MEAN_ELEMENT_THEORY = SGP/SGP4

EPOCH          = 2026-01-16T21:31:04.930176
MEAN_MOTION    = 15.23025477
ECCENTRICITY   = .00157087
INCLINATION    = 82.5462
RA_OF_ASC_NODE = 159.2862
ARG_OF_PERICENTER = 104.0461
MEAN_ANOMALY   = 256.2523

EPHEMERIS_TYPE = 0
CLASSIFICATION_TYPE = U
NORAD_CAT_ID   = 14699
ELEMENT_SET_NO = 999
REV_AT_EPOCH   = 26473
BSTAR          = .23018708E-3
MEAN_MOTION_DOT = .5466E-4
MEAN_MOTION_DDOT = 0

CCSDS_OMM_VERS = 2.0
CREATION_DATE  = 
ORIGINATOR     = 

OBJECT_NAME    = SL-14 R/B
OBJECT_ID      = 1984-027B
CENTER_NAME    = EARTH
REF_FRAME      = TEME
TIME_SYSTEM    = UTC
MEAN_ELEMENT_THEORY = SGP/SGP4

EPOCH          = 2026-01-16T18:36:00.563328
MEAN_MOTION    = 14.85916591
ECCENTRICITY   = .00188648
INCLINATION    = 82.5431
RA_OF_ASC_NODE = 293.7047
ARG_OF_PERICENTER = 141.4217
MEAN_ANOMALY   = 218.8352

EPHEMERIS_TYPE = 0
CLASSIFICATION_TYPE = U
NORAD_CAT_ID   = 14820
ELEMENT_SET_NO = 999
REV_AT_EPOCH   = 23992
BSTAR          = .42954078E-4
MEAN_MOTION_DOT = .4E-5
MEAN_MOTION_DDOT = 0

CCSDS_OMM_VERS = 2.0
CREATION_DATE  = 
ORIGINATOR     = 

OBJECT_NAME    = SL-8 R/B
OBJECT_ID      = 1985-006B
CENTER_NAME    = EARTH
REF_FRAME      = TEME
TIME_SYSTEM    = UTC
MEAN_ELEMENT_THEORY = SGP/SGP4

EPOCH          = 2026-01-16T23:01:36.961248
MEAN_MOTION    = 14.37747297
ECCENTRICITY   = .00197874
INCLINATION    = 74.0466
RA_OF_ASC_NODE = 356.3312
ARG_OF_PERICENTER = 282.7476
MEAN_ANOMALY   = 136.5187

EPHEMERIS_TYPE = 0
CLASSIFICATION_TYPE = U
NORAD_CAT_ID   = 15483
ELEMENT_SET_NO = 999
REV_AT_EPOCH   = 14659
BSTAR          = .93831419E-4
MEAN_MOTION_DOT = .257E-5
MEAN_MOTION_DDOT = 0

CCSDS_OMM_VERS = 2.0
CREATION_DATE  = 
ORIGINATOR     = 

OBJECT_NAME    = SL-12 R/B(2)
OBJECT_ID      = 1985-042D
CENTER_NAME    = EARTH
REF_FRAME      = TEME
TIME_SYSTEM    = UTC
MEAN_ELEMENT_THEORY = SGP/SGP4

EPOCH          = 2026-01-16T22:16:37.734528
MEAN_MOTION    = 14.21962713
ECCENTRICITY   = .00363133
INCLINATION    = 71.1064
RA_OF_ASC_NODE = 197.0809
ARG_OF_PERICENTER = 209.4195
MEAN_ANOMALY   = 256.7647

EPHEMERIS_TYPE = 0
CLASSIFICATION_TYPE = U
NORAD_CAT_ID   = 15772
ELEMENT_SET_NO = 999
REV_AT_EPOCH   = 10703
BSTAR          = .42182791E-4
MEAN_MOTION_DOT = .46E-6
MEAN_MOTION_DDOT = 0

CCSDS_OMM_VERS = 2.0
CREATION_DATE  = 
ORIGINATOR     = 

OBJECT_NAME    = SL-14 R/B
OBJECT_ID      = 1985-069B
CENTER_NAME    = EARTH
REF_FRAME      = TEME
TIME_SYSTEM    = UTC
MEAN_ELEMENT_THEORY = SGP/SGP4

EPOCH          = 2026-01-16T15:22:54.745824
MEAN_MOTION    = 14.86365958
ECCENTRICITY   = .00189708
INCLINATION    = 82.5253
RA_OF_ASC_NODE = 73.8895
ARG_OF_PERICENTER = 9.7223
MEAN_ANOMALY   = 350.4357

EPHEMERIS_TYPE = 0
CLASSIFICATION_TYPE = U
NORAD_CAT_ID   = 15945
ELEMENT_SET_NO = 999
REV_AT_EPOCH   = 16510
BSTAR          = .33630751E-4
MEAN_MOTION_DOT = .322E-5
MEAN_MOTION_DDOT = 0

CCSDS_OMM_VERS = 2.0
CREATION_DATE  = 
ORIGINATOR     = 

OBJECT_NAME    = SL-16 R/B
OBJECT_ID      = 1985-097B
CENTER_NAME    = EARTH
REF_FRAME      = TEME
TIME_SYSTEM    = UTC
MEAN_ELEMENT_THEORY = SGP/SGP4

EPOCH          = 2026-01-16T22:26:34.256544
MEAN_MOTION    = 14.16592076
ECCENTRICITY   = .00087896
INCLINATION    = 71.0016
RA_OF_ASC_NODE = 249.5091
ARG_OF_PERICENTER = 320.8649
MEAN_ANOMALY   = 50.3842

EPHEMERIS_TYPE = 0
CLASSIFICATION_TYPE = U
NORAD_CAT_ID   = 16182
ELEMENT_SET_NO = 999
REV_AT_EPOCH   = 7990
BSTAR          = -.573386E-4
MEAN_MOTION_DOT = -.162E-5
MEAN_MOTION_DDOT = 0

CCSDS_OMM_VERS = 2.0
CREATION_DATE  = 
ORIGINATOR     = 

OBJECT_NAME    = SL-14 R/B
OBJECT_ID      = 1986-006B
CENTER_NAME    = EARTH
REF_FRAME      = TEME
TIME_SYSTEM    = UTC
MEAN_ELEMENT_THEORY = SGP/SGP4

EPOCH          = 2026-01-16T21:36:51.955776
MEAN_MOTION    = 14.86723979
ECCENTRICITY   = .00782788
INCLINATION    = 82.5288
RA_OF_ASC_NODE = 308.4714
ARG_OF_PERICENTER = 84.4530
MEAN_ANOMALY   = 276.5608

EPHEMERIS_TYPE = 0
CLASSIFICATION_TYPE = U
NORAD_CAT_ID   = 16496
ELEMENT_SET_NO = 999
REV_AT_EPOCH   = 14151
BSTAR          = .59706503E-4
MEAN_MOTION_DOT = .59E-5
MEAN_MOTION_DDOT = 0

CCSDS_OMM_VERS = 2.0
CREATION_DATE  = 
ORIGINATOR     = 

OBJECT_NAME    = COSMOS 1743
OBJECT_ID      = 1986-034A
CENTER_NAME    = EARTH
REF_FRAME      = TEME
TIME_SYSTEM    = UTC
MEAN_ELEMENT_THEORY = SGP/SGP4

EPOCH          = 2026-01-16T18:20:19.736448
MEAN_MOTION    = 15.54505473
ECCENTRICITY   = .00054056
INCLINATION    = 82.5362
RA_OF_ASC_NODE = 128.1510
ARG_OF_PERICENTER = 122.4560
MEAN_ANOMALY   = 237.7217

EPHEMERIS_TYPE = 0
CLASSIFICATION_TYPE = U
NORAD_CAT_ID   = 16719
ELEMENT_SET_NO = 999
REV_AT_EPOCH   = 17217
BSTAR          = .49280972E-3
MEAN_MOTION_DOT = .32572E-3
MEAN_MOTION_DDOT = 0

