SL-3 R/B                
1 13403U 82079B   26016.94290208  .00004821  00000+0  19602-3 0  9991
2 13403  81.1457 254.1531 0025182 344.0446  15.9991 15.24046256369819
SL-14 R/B               
1 13553U 82092B   26016.96152704  .00000465  00000+0  49446-4 0  9992
2 13553  82.5673 189.7693 0021768 111.3902   4.9771 14.86595833321246
SL-3 R/B                
1 13819U 83010B   26016.57383961  .00009558  00000+0  20452-3 0  9993
2 13819  81.1032  66.0640 0016390 224.7326 135.2597 15.44502727349898
SL-3 R/B                
1 14208U 83075B   26016.95380234  .00010397  00000+0  28721-3 0  9999
2 14208  97.6110  19.6431 0024183  57.6011 302.7568 15.36957947322209
COSMOS 1536             
1 14699U 84013A   26016.89658484  .00005466  00000+0  23019-3 0  9990
2 14699  82.5462 159.2862 0015708 104.0461 256.2523 15.23025477264731
SL-14 R/B               
1 14820U 84027B   26016.77500652  .00000400  00000+0  42954-4 0  9994
2 14820  82.5431 293.7047 0018864 141.4217 218.8352 14.85916591239922
SL-8 R/B                
1 15483U 85006B   26016.95945557  .00000257  00000+0  93831-4 0  9995
2 15483  74.0466 356.3312 0019787 282.7476 136.5187 14.37747297146598
SL-12 R/B(2)            
1 15772U 85042D   26016.92821452  .00000046  00000+0  42183-4 0  9990
2 15772  71.1064 197.0809 0036313 209.4195 256.7647 14.21962713107037
SL-14 R/B               
1 15945U 85069B   26016.64091141  .00000322  00000+0  33631-4 0  9999
2 15945  82.5253  73.8895 0018970   9.7223 350.4357 14.86365958165104
SL-16 R/B               
1 16182U 85097B   26016.93511871 -.00000162  00000+0 -57339-4 0  9998
2 16182  71.0016 249.5091 0008789 320.8649  50.3842 14.16592076 79907
SL-14 R/B               
1 16496U 86006B   26016.90060134  .00000590  00000+0  59707-4 0  9999
2 16496  82.5288 308.4714 0078278  84.4530 276.5608 14.86723979141516
COSMOS 1743             
1 16719U 86034A   26016.76411732  .00032572  00000+0  49281-3 0  9996
2 16719  82.5362 128.1510 0005405 122.4560 237.7217 15.54505473172170
